$$SOE
2461288.500000000, A.D. 2026-Sep-05 00:00:00.0000, 2.255039004053587E+08, -6.225063103162258E+09, 2.278557871796179E+07,
2461295.500000000, A.D. 2026-Sep-12 00:00:00.0000, 2.283495976583969E+08, -6.224972370321860E+09, 2.263634138669348E+07,
2461302.500000000, A.D. 2026-Sep-19 00:00:00.0000, 2.311952760832221E+08, -6.224880436236217E+09, 2.248709945977116E+07,
2461309.500000000, A.D. 2026-Sep-26 00:00:00.0000, 2.340409339276011E+08, -6.224787302495320E+09, 2.233785307227278E+07,
2461316.500000000, A.D. 2026-Oct-03 00:00:00.0000, 2.368865698879988E+08, -6.224692971036290E+09, 2.218860232088280E+07,
2461323.500000000, A.D. 2026-Oct-10 00:00:00.0000, 2.397321830932316E+08, -6.224597444000688E+09, 2.203934727300358E+07,
2461330.500000000, A.D. 2026-Oct-17 00:00:00.0000, 2.425777730531843E+08, -6.224500723665387E+09, 2.189008797222376E+07,
2461337.500000000, A.D. 2026-Oct-24 00:00:00.0000, 2.454233395969656E+08, -6.224402812469530E+09, 2.174082443611765E+07,
2461344.500000000, A.D. 2026-Oct-31 00:00:00.0000, 2.482688828992807E+08, -6.224303713204206E+09, 2.159155663202429E+07,
2461351.500000000, A.D. 2026-Nov-07 00:00:00.0000, 2.511144039340788E+08, -6.224203429290758E+09, 2.144228440589809E+07,
2461358.500000000, A.D. 2026-Nov-14 00:00:00.0000, 2.539599055563540E+08, -6.224101964260317E+09, 2.129300741855621E+07,
2461365.500000000, A.D. 2026-Nov-21 00:00:00.0000, 2.568053924003489E+08, -6.223999319752658E+09, 2.114372531142330E+07,
2461372.500000000, A.D. 2026-Nov-28 00:00:00.0000, 2.596508685960680E+08, -6.223895495042466E+09, 2.099443794777441E+07,
2461379.500000000, A.D. 2026-Dec-05 00:00:00.0000, 2.624963369236375E+08, -6.223790488749312E+09, 2.084514534412909E+07,
2461386.500000000, A.D. 2026-Dec-12 00:00:00.0000, 2.653417995704333E+08, -6.223684299620401E+09, 2.069584753120852E+07,
2461393.500000000, A.D. 2026-Dec-19 00:00:00.0000, 2.681872586037189E+08, -6.223576926379617E+09, 2.054654451834011E+07,
2461400.500000000, A.D. 2026-Dec-26 00:00:00.0000, 2.710327160163572E+08, -6.223468367510971E+09, 2.039723630363750E+07,
2461407.500000000, A.D. 2027-Jan-02 00:00:00.0000, 2.738781736211767E+08, -6.223358621167472E+09, 2.024792288923550E+07,
2461414.500000000, A.D. 2027-Jan-09 00:00:00.0000, 2.767236329103205E+08, -6.223247685185447E+09, 2.009860429263926E+07,
2461421.500000000, A.D. 2027-Jan-16 00:00:00.0000, 2.795690949138671E+08, -6.223135557195671E+09, 1.994928055171251E+07,
2461428.500000000, A.D. 2027-Jan-23 00:00:00.0000, 2.824145601023057E+08, -6.223022234871175E+09, 1.979995171589756E+07,
2461435.500000000, A.D. 2027-Jan-30 00:00:00.0000, 2.852600285189868E+08, -6.222907716359677E+09, 1.965061780249500E+07,
2461442.500000000, A.D. 2027-Feb-06 00:00:00.0000, 2.881055005656421E+08, -6.222792000560791E+09, 1.950127870675516E+07,
2461449.500000000, A.D. 2027-Feb-13 00:00:00.0000, 2.909509779790991E+08, -6.222675086028429E+09, 1.935193420752907E+07,
2461456.500000000, A.D. 2027-Feb-20 00:00:00.0000, 2.937964626339918E+08, -6.222556969289526E+09, 1.920258422048664E+07,
2461463.500000000, A.D. 2027-Feb-27 00:00:00.0000, 2.966419545664354E+08, -6.222437645792797E+09, 1.905322890803146E+07,
2461470.500000000, A.D. 2027-Mar-06 00:00:00.0000, 2.994874522361673E+08, -6.222317111564944E+09, 1.890386852601290E+07,
2461477.500000000, A.D. 2027-Mar-13 00:00:00.0000, 3.023329534266067E+08, -6.222195363524895E+09, 1.875450332131195E+07,
2461484.500000000, A.D. 2027-Mar-20 00:00:00.0000, 3.051784556532694E+08, -6.222072399290698E+09, 1.860513351549053E+07,
2461491.500000000, A.D. 2027-Mar-27 00:00:00.0000, 3.080239562825099E+08, -6.221948217028013E+09, 1.845575931096840E+07,
2461498.500000000, A.D. 2027-Apr-03 00:00:00.0000, 3.108694525634811E+08, -6.221822815387940E+09, 1.830638089712572E+07,
2461505.500000000, A.D. 2027-Apr-10 00:00:00.0000, 3.137149416345568E+08, -6.221696193511126E+09, 1.815699845249462E+07,
2461512.500000000, A.D. 2027-Apr-17 00:00:00.0000, 3.165604205262929E+08, -6.221568351112447E+09, 1.800761213983727E+07,
2461519.500000000, A.D. 2027-Apr-24 00:00:00.0000, 3.194058862401383E+08, -6.221439288708451E+09, 1.785822208171320E+07,
2461526.500000000, A.D. 2027-May-01 00:00:00.0000, 3.222513362025298E+08, -6.221309007959719E+09, 1.770882829132271E+07,
2461533.500000000, A.D. 2027-May-08 00:00:00.0000, 3.250967694017693E+08, -6.221177511379782E+09, 1.755943059161997E+07,
2461540.500000000, A.D. 2027-May-15 00:00:00.0000, 3.279421867108027E+08, -6.221044800457125E+09, 1.741002873791122E+07,
2461547.500000000, A.D. 2027-May-22 00:00:00.0000, 3.307875888320440E+08, -6.220910874781929E+09, 1.726062267560911E+07,
2461554.500000000, A.D. 2027-May-29 00:00:00.0000, 3.336329752201697E+08, -6.220775733645752E+09, 1.711121250542641E+07,
2461561.500000000, A.D. 2027-Jun-05 00:00:00.0000, 3.364783448677185E+08, -6.220639376982432E+09, 1.696179833088255E+07,
2461568.500000000, A.D. 2027-Jun-12 00:00:00.0000, 3.393236969459750E+08, -6.220501805218419E+09, 1.681238020764446E+07,
2461575.500000000, A.D. 2027-Jun-19 00:00:00.0000, 3.421690309701093E+08, -6.220363018967538E+09, 1.666295814880133E+07,
2461582.500000000, A.D. 2027-Jun-26 00:00:00.0000, 3.450143467679922E+08, -6.220223018831489E+09, 1.651353213926125E+07,
2461589.500000000, A.D. 2027-Jul-03 00:00:00.0000, 3.478596443848155E+08, -6.220081805297803E+09, 1.636410214804411E+07,
2461596.500000000, A.D. 2027-Jul-10 00:00:00.0000, 3.507049239603564E+08, -6.219939378726530E+09, 1.621466813605690E+07,
2461603.500000000, A.D. 2027-Jul-17 00:00:00.0000, 3.535501856152382E+08, -6.219795739464496E+09, 1.606523005306673E+07,
2461610.500000000, A.D. 2027-Jul-24 00:00:00.0000, 3.563954295026106E+08, -6.219650888149967E+09, 1.591578780466318E+07,
2461617.500000000, A.D. 2027-Jul-31 00:00:00.0000, 3.592406564366820E+08, -6.219504825972192E+09, 1.576634117093897E+07,
2461624.500000000, A.D. 2027-Aug-07 00:00:00.0000, 3.620858688973825E+08, -6.219357553734079E+09, 1.561688978959656E+07,
2461631.500000000, A.D. 2027-Aug-14 00:00:00.0000, 3.649310701100351E+08, -6.219209069971353E+09, 1.546743339395285E+07,
2461638.500000000, A.D. 2027-Aug-21 00:00:00.0000, 3.677762618182561E+08, -6.219059371492340E+09, 1.531797197422457E+07,
2461645.500000000, A.D. 2027-Aug-28 00:00:00.0000, 3.706214441811476E+08, -6.218908455135197E+09, 1.516850564574528E+07,
2461652.500000000, A.D. 2027-Sep-04 00:00:00.0000, 3.734666166136325E+08, -6.218756318240236E+09, 1.501903453677893E+07,
2461659.500000000, A.D. 2027-Sep-11 00:00:00.0000, 3.763117781746205E+08, -6.218602958498699E+09, 1.486955876969576E+07,
2461666.500000000, A.D. 2027-Sep-18 00:00:00.0000, 3.791569276361869E+08, -6.218448373828005E+09, 1.472007846988106E+07,
2461673.500000000, A.D. 2027-Sep-25 00:00:00.0000, 3.820020634626271E+08, -6.218292562350914E+09, 1.457059377481937E+07,
2461680.500000000, A.D. 2027-Oct-02 00:00:00.0000, 3.848471837744541E+08, -6.218135522450677E+09, 1.442110483841467E+07,
2461687.500000000, A.D. 2027-Oct-09 00:00:00.0000, 3.876922863198523E+08, -6.217977252906298E+09, 1.427161182789755E+07,
2461694.500000000, A.D. 2027-Oct-16 00:00:00.0000, 3.905373685168581E+08, -6.217817753162352E+09, 1.412211490279865E+07,
2461701.500000000, A.D. 2027-Oct-23 00:00:00.0000, 3.933824278262707E+08, -6.217657023738688E+09, 1.397261415150642E+07,
2461708.500000000, A.D. 2027-Oct-30 00:00:00.0000, 3.962274628301457E+08, -6.217495066169278E+09, 1.382310950076675E+07,
2461715.500000000, A.D. 2027-Nov-06 00:00:00.0000, 3.990724738525434E+08, -6.217331881341854E+09, 1.367360079694414E+07,
2461722.500000000, A.D. 2027-Nov-13 00:00:00.0000, 4.019174611371796E+08, -6.217167468314283E+09, 1.352408807137728E+07,
2461729.500000000, A.D. 2027-Nov-20 00:00:00.0000, 4.047624234838916E+08, -6.217001825793380E+09, 1.337457154504395E+07,
2461736.500000000, A.D. 2027-Nov-27 00:00:00.0000, 4.076073589615195E+08, -6.216834953311601E+09, 1.322505146646690E+07,
2461743.500000000, A.D. 2027-Dec-04 00:00:00.0000, 4.104522656736652E+08, -6.216666851187571E+09, 1.307552804316473E+07,
2461750.500000000, A.D. 2027-Dec-11 00:00:00.0000, 4.132971420267591E+08, -6.216497520234377E+09, 1.292600143843937E+07,
2461757.500000000, A.D. 2027-Dec-18 00:00:00.0000, 4.161419867754164E+08, -6.216326961554605E+09, 1.277647178063059E+07,
2461764.500000000, A.D. 2027-Dec-25 00:00:00.0000, 4.189867989970695E+08, -6.216155176424168E+09, 1.262693917080784E+07,
2461771.500000000, A.D. 2028-Jan-01 00:00:00.0000, 4.218315780372986E+08, -6.215982166250272E+09, 1.247740368640471E+07,
$$EOE